1 39577U 14009F   14196.20845969  .00166478  16541-4  59957-3 0  2072
2 39577  65.0109 300.1860 0019963 295.2002  64.7074 15.88228099 21610
1 39577U 14009F   14196.46033587  .00156628  15418-4  56225-3 0  2089
2 39577  65.0113 299.2849 0020422 297.5886  62.3193 15.88293082 21651
1 39577U 14009F   14197.21587397  .00151502  14883-4  53825-3 0  2091
2 39577  65.0100 296.5858 0020142 296.7811  63.1285 15.88518465 21774
1 39577U 14009F   14197.40474704  .00141744  13870-4  50261-3 0  2104
2 39577  65.0112 295.9092 0020619 297.6246  62.2814 15.88558841 21805
1 39577U 14009F   14197.65656560  .00147000  00000-0  50897-3 0  2128
2 39577  65.0039 295.0050 0021651 299.2064  60.7450 15.88667156 21844
1 39577U 14009F   14198.16016227  .00138311  13549-4  48564-3 0  2135
2 39577  65.0111 293.2131 0020469 297.3864  62.5207 15.88766965 21925
1 39577U 14009F   14198.53783991  .00128566  12632-4  44944-3 0  2147
2 39577  65.0103 291.8605 0021163 297.8131  62.0883 15.88851866 21986
1 39577U 14009F   14199.23019266  .00116970  11632-4  40626-3 0  2151
2 39577  65.0114 289.3877 0021323 299.2654  60.6367 15.89006061 22099
1 39577U 14009F   14199.54487919  .00110979  11150-4  38464-3 0  2165
2 39577  65.0114 288.2618 0021328 299.7422  60.1621 15.89066753 22141
1 39577U 14009F   14200.23713672  .00103515  10590-4  35719-3 0  2178
2 39577  65.0097 285.7831 0020699 299.8469  60.0467 15.89203895 22251
1 39577U 14009F   14200.55178569  .00098274  10217-4  33861-3 0  2181
2 39577  65.0098 284.6580 0020637 298.3692  61.5390 15.89256521 22306
1 39577U 14009F   14201.55856600  .00095551  10040-4  32588-3 0  2196
2 39577  65.0093 281.0588 0021114 299.3302  60.5748 15.89452718 22469
1 39577U 14009F   14202.56522729  .00092072  98177-5  31154-3 0  2203
2 39577  65.0076 277.4564 0020755 299.1540  60.7544 15.89637768 22629
1 39577U 14009F   14203.57176892  .00091982  98223-5  30827-3 0  2219
2 39577  65.0060 273.8548 0020801 299.0350  60.8729 15.89825218 22786
1 39577U 14009F   14204.20078539  .00102180  10541-4  33883-3 0  2224
2 39577  65.0051 271.6045 0021318 300.6482  59.2577 15.89969713 22886
1 39577U 14009F   14205.20711000  .00102397  10569-4  33569-3 0  2234
2 39577  65.0052 268.0034 0021724 300.1971  59.6977 15.90177252 23042
1 39577U 14009F   14205.96177225  .00103654  10672-4  33683-3 0  2242
2 39577  65.0050 265.3017 0021997 300.6021  59.3091 15.90334093 23169
1 39577U 14009F   14206.46483284  .00108139  11022-4  34909-3 0  2259
2 39577  65.0050 263.5012 0021954 300.3342  59.5746 15.90448276 23247
1 39577U 14009F   14206.52771132  .00109858  11159-4  35422-3 0  2260
2 39577  65.0050 263.2761 0021948 300.3005  59.6038 15.90465600 23250
1 39577U 14009F   14206.96785498  .00119333  11953-4  38186-3 0  2270
2 39577  65.0050 261.7005 0021909 300.0644  59.8709 15.90585479 23329
1 39577U 14009F   14207.47083096  .00122692  12258-4  38994-3 0  2281
2 39577  65.0050 259.8996 0021861 299.7919  60.1135 15.90710872 23406
1 39577U 14009F   14207.53369958  .00127564  12702-4  40467-3 0  2298
2 39577  65.0050 259.6744 0021854 299.7576  60.1491 15.90734461 23412
1 39577U 14009F   14207.97376623  .00133890  13316-4  42166-3 0  2304
2 39577  65.0050 258.0984 0021809 299.5167  60.4065 15.90862640 23483
1 39577U 14009F   14208.47665140  .00145198  14485-4  45340-3 0  2315
2 39577  65.0018 256.2903 0021472 297.9499  61.9691 15.91017001 23568
1 39577U 14009F   14208.53950550  .00151803  15206-4  47352-3 0  2322
2 39577  65.0009 256.0642 0020920 296.4045  63.5159 15.91046736 23579
1 39577U 14009F   14209.10518265  .00151804  15226-4  46938-3 0  2332
2 39577  65.0015 254.0363 0020854 296.5983  63.3006 15.91219098 23664
1 39577U 14009F   14209.29372977  .00147860  14798-4  45635-3 0  2344
2 39577  65.0010 253.3592 0020760 296.8334  63.0427 15.91265102 23698
1 39577U 14009F   14209.60796413  .00151475  15207-4  46493-3 0  2351
2 39577  65.0010 252.2328 0020725 296.6583  63.2471 15.91366583 23740
1 39577U 14009F   14209.98501500  .00154545  15567-4  47127-3 0  2369
2 39577  65.0010 250.8810 0020682 296.4476  63.4690 15.91488923 23806
1 39577U 14009F   14210.42487026  .00159955  16213-4  48353-3 0  2378
2 39577  65.0014 249.3010 0021062 298.6195  61.2860 15.91633635 23874
1 39577U 14009F   14210.86467998  .00171893  17703-4  51503-3 0  2384
2 39577  65.0020 247.7252 0020639 297.8718  62.0525 15.91802577 23940
1 39577U 14009F   14211.11597783  .00173255  17891-4  51654-3 0  2399
2 39577  65.0026 246.8223 0020711 299.0486  60.8634 15.91893370 23983
1 39577U 14009F   14211.49290365  .00179369  18716-4  52991-3 0  2402
2 39577  65.0001 245.4648 0021467 299.9785  59.9306 15.92031659 24040
1 39577U 14009F   14212.05822528  .00183570  19321-4  53618-3 0  2417
2 39577  65.0009 243.4364 0021418 299.3710  60.5421 15.92245973 24131
1 39577U 14009F   14212.24664760  .00184363  19442-4  53658-3 0  2420
2 39577  65.0005 242.7593 0021329 299.2504  60.6533 15.92316462 24164
1 39577U 14009F   14212.49787509  .00193666  00000-0  55456-3 0  2446
2 39577  64.9991 241.8557 0020556 298.3988  61.5619 15.92404235 24209
1 39577U 14009F   14212.56066470  .00198063  21435-4  57181-3 0  2454
2 39577  65.0005 241.6319 0021283 299.0652  60.8418 15.92457935 24210
1 39577U 14009F   14213.00024721  .00201117  21931-4  57521-3 0  2462
2 39577  64.9996 240.0519 0021141 299.0756  60.8356 15.92638490 24285
1 39577U 14009F   14213.43977989  .00206287  22765-4  58435-3 0  2477
2 39577  65.0017 238.4713 0020975 298.9421  60.9698 15.92822891 24357
1 39577U 14009F   14213.56535021  .00213145  23871-4  60178-3 0  2486
2 39577  65.0010 238.0182 0020779 298.8830  61.0405 15.92887105 24370
1 39577U 14009F   14214.13036005  .00230344  26850-4  63919-3 0  2495
2 39577  65.0029 235.9863 0021516 299.8134  60.1681 15.93172241 24465
1 39577U 14009F   14214.44419056  .00245184  29610-4  67442-3 0  2502
2 39577  65.0019 234.8580 0021126 298.8908  61.0153 15.93343366 24511
1 39577U 14009F   14214.56972021  .00254956  31522-4  69879-3 0  2510
2 39577  65.0019 234.4070 0020678 298.4751  61.4536 15.93422253 24538
1 39577U 14009F   14215.07178040  .00275990  35972-4  74387-3 0  2521
2 39577  65.0019 232.6015 0020581 298.1535  61.8625 15.93730307 24611
1 39577U 14009F   14215.44823972  .00292359  39717-4  77807-3 0  2533
2 39577  65.0001 231.2452 0020471 296.4003  63.5253 15.93964668 24672
1 39577U 14009F   14215.82466041  .00289372  39122-4  76214-3 0  2548
2 39577  65.0006 229.8899 0020130 296.0873  63.7982 15.94173690 24734
1 39577U 14009F   14216.20104813  .00286559  38570-4  74674-3 0  2556
2 39577  64.9992 228.5332 0020045 296.5169  63.3935 15.94376625 24795
1 39577U 14009F   14216.51465686  .00289641  39350-4  74758-3 0  2564
2 39577  65.0003 227.4031 0019878 295.4059  64.5047 15.94559645 24840
1 39577U 14009F   14216.89094047  .00293763  40403-4  74921-3 0  2578
2 39577  65.0002 226.0477 0019818 295.2586  64.6536 15.94782315 24908
1 39577U 14009F   14217.20447148  .00295001  40776-4  74497-3 0  2587
2 39577  64.9998 224.9172 0019816 295.2059  64.7051 15.94964891 24951
1 39577U 14009F   14217.51796071  .00303151  42820-4  75747-3 0  2591
2 39577  65.0004 223.7858 0019648 294.6474  65.2659 15.95164137 25009
1 39577U 14009F   14217.89409801  .00310414  44731-4  76523-3 0  2602
2 39577  65.0004 222.4289 0019828 294.7113  65.2003 15.95403260 25066
1 39577U 14009F   14218.27018232  .00313237  45563-4  76261-3 0  2619
2 39577  65.0000 221.0726 0019688 293.7026  66.2115 15.95637011 25124
1 39577U 14009F   14218.52087224  .00317186  46659-4  76554-3 0  2624
2 39577  65.0001 220.1677 0019582 293.8814  66.0301 15.95799109 25165
1 39577U 14009F   14218.77153805  .00319763  47414-4  76509-3 0  2634
2 39577  65.0001 219.2631 0019513 293.6620  66.2488 15.95959627 25207
1 39577U 14009F   14218.89686180  .00320719  47708-4  76409-3 0  2643
2 39577  65.0002 218.8108 0019472 293.4929  66.4175 15.96039472 25221
1 39577U 14009F   14219.14749592  .00318318  47164-4  75219-3 0  2656
2 39577  64.9995 217.9054 0019505 293.0882  66.8214 15.96188289 25264
1 39577U 14009F   14219.52339599  .00320440  47850-4  74735-3 0  2664
2 39577  64.9995 216.5477 0019522 292.9916  66.9171 15.96425415 25328
1 39577U 14009F   14219.89924775  .00316867  47037-4  73152-3 0  2678
2 39577  65.0007 215.1920 0018544 291.3577  68.5565 15.96647621 25387
1 39577U 14009F   14220.14979073  .00312270  45924-4  71530-3 0  2685
2 39577  65.0013 214.2861 0018612 291.4942  68.4223 15.96788375 25428
1 39577U 14009F   14220.46293075  .00311198  45749-4  70516-3 0  2698
2 39577  65.0006 213.1533 0018873 291.5336  68.3815 15.96975056 25476
1 39577U 14009F   14220.83864753  .00310607  45717-4  69528-3 0  2708
2 39577  65.0016 211.7956 0018726 291.1166  68.7930 15.97201156 25537
1 39577U 14009F   14221.15171163  .00305627  44541-4  67726-3 0  2719
2 39577  65.0018 210.6619 0018909 290.9601  68.9536 15.97377771 25583
1 39577U 14009F   14221.52733346  .00306395  44854-4  67026-3 0  2721
2 39577  65.0012 209.3018 0019058 291.0885  68.8227 15.97603280 25647
1 39577U 14009F   14221.84031464  .00303648  44251-4  65847-3 0  2737
2 39577  65.0021 208.1704 0018443 290.4115  69.5031 15.97783581 25691
1 39577U 14009F   14222.15326578  .00296826  42633-4  63760-3 0  2749
2 39577  65.0030 207.0374 0018527 290.2481  69.6693 15.97952327 25746
1 39577U 14009F   14222.46617398  .00298220  43071-4  63400-3 0  2755
2 39577  65.0026 205.9038 0018520 289.5993  70.3147 15.98136653 25792
1 39577U 14009F   14222.90419836  .00289394  41020-4  60745-3 0  2765
2 39577  65.0045 204.3181 0018438 289.2636  70.6508 15.98369382 25863
